{"type": "FeatureCollection", "features": [ {"type": "Feature", "properties": {"norad_id": 66526, "name": "STARLINK-35932", "group": "last-30-days", "lat": -8.431536324133537, "lon": -104.48141153129235, "alt_km": 415.8163237277895, "timestamp": "2025-12-10T14:53:35.946385+00:00", "meta": {"OBJECT_NAME": "STARLINK-35932", "OBJECT_ID": "2025-265L", "EPOCH": "2025-12-10T06:00:02.000160", "MEAN_MOTION": 15.50609062, "ECCENTRICITY": 0.0001549, "INCLINATION": 43.0001, "RA_OF_ASC_NODE": 68.5335, "ARG_OF_PERICENTER": 273.2814, "MEAN_ANOMALY": 8.2547, "EPHEMERIS_TYPE": 0, "CLASSIFICATION_TYPE": "U", "NORAD_CAT_ID": 66526, "ELEMENT_SET_NO": 999, "REV_AT_EPOCH": 448, "BSTAR": -0.0014606563, "MEAN_MOTION_DOT": -0.00085197, "MEAN_MOTION_DDOT": 0}, "tle": {"line1": "1 66526U 25265L   25344.25002315 -.00085197  00000+0 -14607-2 0  9992", "line2": "2 66526  43.0001  68.5335 0001549 273.2814   8.2547 15.50609062  4487"}}, "geometry": {"type": "Point", "coordinates": [-104.48141153129235, -8.431536324133537]}}, {"type": "Feature", "properties": {"norad_id": 66527, "name": "STARLINK-35935", "group": "last-30-days", "lat": -9.71698041736386, "lon": -103.04942926839318, "alt_km": 415.77338845935265, "timestamp": "2025-12-10T14:53:35.946394+00:00", "meta": {"OBJECT_NAME": "STARLINK-35935", "OBJECT_ID": "2025-265M", "EPOCH": "2025-12-10T06:00:02.000160", "MEAN_MOTION": 15.50595871, "ECCENTRICITY": 0.00014062, "INCLINATION": 42.9999, "RA_OF_ASC_NODE": 68.5294, "ARG_OF_PERICENTER": 263.8419, "MEAN_ANOMALY": 19.6129, "EPHEMERIS_TYPE": 0, "CLASSIFICATION_TYPE": "U", "NORAD_CAT_ID": 66527, "ELEMENT_SET_NO": 999, "REV_AT_EPOCH": 459, "BSTAR": -0.0010812772, "MEAN_MOTION_DOT": -0.00063302, "MEAN_MOTION_DDOT": 0}, "tle": {"line1": "1 66527U 25265M   25344.25002315 -.00063302  00000+0 -10813-2 0  9992", "line2": "2 66527  42.9999  68.5294 0001406 263.8419  19.6129 15.50595871  4590"}}, "geometry": {"type": "Point", "coordinates": [-103.04942926839318, -9.71698041736386]}}, {"type": "Feature", "properties": {"norad_id": 66528, "name": "STARLINK-35928", "group": "last-30-days", "lat": -10.994185017005393, "lon": -101.61030073305466, "alt_km": 415.95176496198474, "timestamp": "2025-12-10T14:53:35.946403+00:00", "meta": {"OBJECT_NAME": "STARLINK-35928", "OBJECT_ID": "2025-265N", "EPOCH": "2025-12-10T06:00:02.000160", "MEAN_MOTION": 15.50581691, "ECCENTRICITY": 0.00015556, "INCLINATION": 43, "RA_OF_ASC_NODE": 68.524, "ARG_OF_PERICENTER": 270.0258, "MEAN_ANOMALY": 15.3506, "EPHEMERIS_TYPE": 0, "CLASSIFICATION_TYPE": "U", "NORAD_CAT_ID": 66528, "ELEMENT_SET_NO": 999, "REV_AT_EPOCH": 459, "BSTAR": -0.00071966408, "MEAN_MOTION_DOT": -0.00042337, "MEAN_MOTION_DDOT": 0}, "tle": {"line1": "1 66528U 25265N   25344.25002315 -.00042337  00000+0 -71966-3 0  9995", "line2": "2 66528  43.0000  68.5240 0001555 270.0258  15.3506 15.50581691  4590"}}, "geometry": {"type": "Point", "coordinates": [-101.61030073305466, -10.994185017005393]}}, {"type": "Feature", "properties": {"norad_id": 66529, "name": "STARLINK-35933", "group": "last-30-days", "lat": -12.274581346483007, "lon": -100.14699609651946, "alt_km": 415.8197149224352, "timestamp": "2025-12-10T14:53:35.946412+00:00", "meta": {"OBJECT_NAME": "STARLINK-35933", "OBJECT_ID": "2025-265P", "EPOCH": "2025-12-10T06:00:02.000160", "MEAN_MOTION": 15.50544342, "ECCENTRICITY": 0.00015617, "INCLINATION": 42.9998, "RA_OF_ASC_NODE": 68.5185, "ARG_OF_PERICENTER": 262.8858, "MEAN_ANOMALY": 24.4175, "EPHEMERIS_TYPE": 0, "CLASSIFICATION_TYPE": "U", "NORAD_CAT_ID": 66529, "ELEMENT_SET_NO": 999, "REV_AT_EPOCH": 459, "BSTAR": 0.00095784993, "MEAN_MOTION_DOT": 0.00056186, "MEAN_MOTION_DDOT": 0}, "tle": {"line1": "1 66529U 25265P   25344.25002315  .00056186  00000+0  95785-3 0  9996", "line2": "2 66529  42.9998  68.5185 0001561 262.8858  24.4175 15.50544342  4590"}}, "geometry": {"type": "Point", "coordinates": [-100.14699609651946, -12.274581346483007]}}, {"type": "Feature", "properties": {"norad_id": 66530, "name": "STARLINK-35961", "group": "last-30-days", "lat": -13.54113385010209, "lon": -98.67578547819788, "alt_km": 416.18894887986335, "timestamp": "2025-12-10T14:53:35.946421+00:00", "meta": {"OBJECT_NAME": "STARLINK-35961", "OBJECT_ID": "2025-265Q", "EPOCH": "2025-12-10T06:00:02.000160", "MEAN_MOTION": 15.50603492, "ECCENTRICITY": 0.00015281, "INCLINATION": 43.0002, "RA_OF_ASC_NODE": 68.5139, "ARG_OF_PERICENTER": 271.0929, "MEAN_ANOMALY": 18.1158, "EPHEMERIS_TYPE": 0, "CLASSIFICATION_TYPE": "U", "NORAD_CAT_ID": 66530, "ELEMENT_SET_NO": 999, "REV_AT_EPOCH": 459, "BSTAR": -0.0013386542, "MEAN_MOTION_DOT": -0.00078163, "MEAN_MOTION_DDOT": 0}, "tle": {"line1": "1 66530U 25265Q   25344.25002315 -.00078163  00000+0 -13387-2 0  9996", "line2": "2 66530  43.0002  68.5139 0001528 271.0929  18.1158 15.50603492  4596"}}, "geometry": {"type": "Point", "coordinates": [-98.67578547819788, -13.54113385010209]}}, {"type": "Feature", "properties": {"norad_id": 66531, "name": "STARLINK-35960", "group": "last-30-days", "lat": -14.799233182173836, "lon": -97.18855320215076, "alt_km": 416.2070855032325, "timestamp": "2025-12-10T14:53:35.946431+00:00", "meta": {"OBJECT_NAME": "STARLINK-35960", "OBJECT_ID": "2025-265R", "EPOCH": "2025-12-10T06:00:02.000160", "MEAN_MOTION": 15.50600352, "ECCENTRICITY": 0.00014085, "INCLINATION": 43, "RA_OF_ASC_NODE": 68.5089, "ARG_OF_PERICENTER": 265.0452, "MEAN_ANOMALY": 26.0806, "EPHEMERIS_TYPE": 0, "CLASSIFICATION_TYPE": "U", "NORAD_CAT_ID": 66531, "ELEMENT_SET_NO": 999, "REV_AT_EPOCH": 459, "BSTAR": -0.0012309755, "MEAN_MOTION_DOT": -0.00071951, "MEAN_MOTION_DDOT": 0}, "tle": {"line1": "1 66531U 25265R   25344.25002315 -.00071951  00000+0 -12310-2 0  9990", "line2": "2 66531  43.0000  68.5089 0001408 265.0452  26.0806 15.50600352  4590"}}, "geometry": {"type": "Point", "coordinates": [-97.18855320215076, -14.799233182173836]}}, {"type": "Feature", "properties": {"norad_id": 66532, "name": "STARLINK-35914", "group": "last-30-days", "lat": -16.042720178326665, "lon": -95.68973315397223, "alt_km": 416.3007107589783, "timestamp": "2025-12-10T14:53:35.946441+00:00", "meta": {"OBJECT_NAME": "STARLINK-35914", "OBJECT_ID": "2025-265S", "EPOCH": "2025-12-10T06:00:02.000160", "MEAN_MOTION": 15.50589195, "ECCENTRICITY": 0.00016211, "INCLINATION": 42.9998, "RA_OF_ASC_NODE": 68.5041, "ARG_OF_PERICENTER": 269.4479, "MEAN_ANOMALY": 23.5961, "EPHEMERIS_TYPE": 0, "CLASSIFICATION_TYPE": "U", "NORAD_CAT_ID": 66532, "ELEMENT_SET_NO": 999, "REV_AT_EPOCH": 459, "BSTAR": -0.00088862819, "MEAN_MOTION_DOT": -0.00052147, "MEAN_MOTION_DDOT": 0}, "tle": {"line1": "1 66532U 25265S   25344.25002315 -.00052147  00000+0 -88863-3 0  9994", "line2": "2 66532  42.9998  68.5041 0001621 269.4479  23.5961 15.50589195  4592"}}, "geometry": {"type": "Point", "coordinates": [-95.68973315397223, -16.042720178326665]}}, {"type": "Feature", "properties": {"norad_id": 66533, "name": "STARLINK-35707", "group": "last-30-days", "lat": -17.28353343646589, "lon": -94.16234310477552, "alt_km": 416.28673434086704, "timestamp": "2025-12-10T14:53:35.946450+00:00", "meta": {"OBJECT_NAME": "STARLINK-35707", "OBJECT_ID": "2025-265T", "EPOCH": "2025-12-10T06:00:02.000160", "MEAN_MOTION": 15.50605944, "ECCENTRICITY": 0.0001646, "INCLINATION": 42.9998, "RA_OF_ASC_NODE": 68.4993, "ARG_OF_PERICENTER": 263.3561, "MEAN_ANOMALY": 31.6027, "EPHEMERIS_TYPE": 0, "CLASSIFICATION_TYPE": "U", "NORAD_CAT_ID": 66533, "ELEMENT_SET_NO": 999, "REV_AT_EPOCH": 459, "BSTAR": -0.0014045028, "MEAN_MOTION_DOT": -0.0008196, "MEAN_MOTION_DDOT": 0}, "tle": {"line1": "1 66533U 25265T   25344.25002315 -.00081960  00000+0 -14045-2 0  9990", "line2": "2 66533  42.9998  68.4993 0001646 263.3561  31.6027 15.50605944  4594"}}, "geometry": {"type": "Point", "coordinates": [-94.16234310477552, -17.28353343646589]}}, {"type": "Feature", "properties": {"norad_id": 66534, "name": "STARLINK-35976", "group": "last-30-days", "lat": -18.505753268968576, "lon": -92.62217920597047, "alt_km": 416.3978515110257, "timestamp": "2025-12-10T14:53:35.946459+00:00", "meta": {"OBJECT_NAME": "STARLINK-35976", "OBJECT_ID": "2025-265U", "EPOCH": "2025-12-10T06:00:02.000160", "MEAN_MOTION": 15.50585831, "ECCENTRICITY": 0.00016315, "INCLINATION": 43, "RA_OF_ASC_NODE": 68.4954, "ARG_OF_PERICENTER": 265.8155, "MEAN_ANOMALY": 31.0658, "EPHEMERIS_TYPE": 0, "CLASSIFICATION_TYPE": "U", "NORAD_CAT_ID": 66534, "ELEMENT_SET_NO": 999, "REV_AT_EPOCH": 459, "BSTAR": -0.00082973148, "MEAN_MOTION_DOT": -0.00048728, "MEAN_MOTION_DDOT": 0}, "tle": {"line1": "1 66534U 25265U   25344.25002315 -.00048728  00000+0 -82973-3 0  9992", "line2": "2 66534  43.0000  68.4954 0001631 265.8155  31.0658 15.50585831  4594"}}, "geometry": {"type": "Point", "coordinates": [-92.62217920597047, -18.505753268968576]}}, {"type": "Feature", "properties": {"norad_id": 66535, "name": "STARLINK-35514", "group": "last-30-days", "lat": -19.7219012546799, "lon": -91.05224228004084, "alt_km": 416.52847416903296, "timestamp": "2025-12-10T14:53:35.946467+00:00", "meta": {"OBJECT_NAME": "STARLINK-35514", "OBJECT_ID": "2025-265V", "EPOCH": "2025-12-10T06:00:02.000160", "MEAN_MOTION": 15.50596779, "ECCENTRICITY": 0.00014672, "INCLINATION": 42.9999, "RA_OF_ASC_NODE": 68.4903, "ARG_OF_PERICENTER": 265.0021, "MEAN_ANOMALY": 33.7951, "EPHEMERIS_TYPE": 0, "CLASSIFICATION_TYPE": "U", "NORAD_CAT_ID": 66535, "ELEMENT_SET_NO": 999, "REV_AT_EPOCH": 459, "BSTAR": -0.0011543494, "MEAN_MOTION_DOT": -0.00067523, "MEAN_MOTION_DDOT": 0}, "tle": {"line1": "1 66535U 25265V   25344.25002315 -.00067523  00000+0 -11543-2 0  9991", "line2": "2 66535  42.9999  68.4903 0001467 265.0021  33.7951 15.50596779  4593"}}, "geometry": {"type": "Point", "coordinates": [-91.05224228004084, -19.7219012546799]}}]}